{"type": "FeatureCollection", "features": [ {"type": "Feature", "properties": {"norad_id": 36074, "name": "COSMOS 2251 DEB", "group": "cosmos-2251-debris", "lat": 30.36813407967831, "lon": -17.1211426105998, "alt_km": 719.2966239638245, "timestamp": "2025-12-16T15:45:51.443015+00:00", "meta": {"OBJECT_NAME": "COSMOS 2251 DEB", "OBJECT_ID": "1993-036AYM", "EPOCH": "2025-12-04T07:35:54.379968", "MEAN_MOTION": 14.43651509, "ECCENTRICITY": 0.0041318, "INCLINATION": 73.9929, "RA_OF_ASC_NODE": 356.1864, "ARG_OF_PERICENTER": 90.6412, "MEAN_ANOMALY": 269.9479, "EPHEMERIS_TYPE": 0, "CLASSIFICATION_TYPE": "U", "NORAD_CAT_ID": 36074, "ELEMENT_SET_NO": 999, "REV_AT_EPOCH": 85788, "BSTAR": 0.0017767, "MEAN_MOTION_DOT": 6.071e-05, "MEAN_MOTION_DDOT": 0}, "tle": {"line1": "1 36074U 93036AYM 25338.31660162  .00006071  00000+0  17767-2 0  9990", "line2": "2 36074  73.9929 356.1864 0041318  90.6412 269.9479 14.43651509857883"}}, "geometry": {"type": "Point", "coordinates": [-17.1211426105998, 30.36813407967831]}}, {"type": "Feature", "properties": {"norad_id": 36366, "name": "COSMOS 2251 DEB", "group": "cosmos-2251-debris", "lat": 0.3032395972366316, "lon": 85.8307428104904, "alt_km": 808.5312809360039, "timestamp": "2025-12-16T15:45:51.443025+00:00", "meta": {"OBJECT_NAME": "COSMOS 2251 DEB", "OBJECT_ID": "1993-036AYT", "EPOCH": "2025-12-15T12:07:14.820096", "MEAN_MOTION": 14.33419941, "ECCENTRICITY": 0.00905187, "INCLINATION": 74.0664, "RA_OF_ASC_NODE": 268.0186, "ARG_OF_PERICENTER": 295.7644, "MEAN_ANOMALY": 63.4187, "EPHEMERIS_TYPE": 0, "CLASSIFICATION_TYPE": "U", "NORAD_CAT_ID": 36366, "ELEMENT_SET_NO": 999, "REV_AT_EPOCH": 86328, "BSTAR": 0.0011191186, "MEAN_MOTION_DOT": 3.208e-05, "MEAN_MOTION_DDOT": 0}, "tle": {"line1": "1 36366U 93036AYT 25349.50503264  .00003208  00000+0  11191-2 0  9990", "line2": "2 36366  74.0664 268.0186 0090518 295.7644  63.4187 14.33419941863289"}}, "geometry": {"type": "Point", "coordinates": [85.8307428104904, 0.3032395972366316]}}, {"type": "Feature", "properties": {"norad_id": 36367, "name": "COSMOS 2251 DEB", "group": "cosmos-2251-debris", "lat": -73.8555501030835, "lon": 144.8885852619722, "alt_km": 772.2756487920615, "timestamp": "2025-12-16T15:45:51.443035+00:00", "meta": {"OBJECT_NAME": "COSMOS 2251 DEB", "OBJECT_ID": "1993-036AYU", "EPOCH": "2025-12-14T22:36:07.424640", "MEAN_MOTION": 13.8634274, "ECCENTRICITY": 0.02622424, "INCLINATION": 74.1011, "RA_OF_ASC_NODE": 227.7062, "ARG_OF_PERICENTER": 300.1243, "MEAN_ANOMALY": 57.4125, "EPHEMERIS_TYPE": 0, "CLASSIFICATION_TYPE": "U", "NORAD_CAT_ID": 36367, "ELEMENT_SET_NO": 999, "REV_AT_EPOCH": 57560, "BSTAR": 0.0012671505, "MEAN_MOTION_DOT": 1.897e-05, "MEAN_MOTION_DDOT": 0}, "tle": {"line1": "1 36367U 93036AYU 25348.94175260  .00001897  00000+0  12672-2 0  9996", "line2": "2 36367  74.1011 227.7062 0262242 300.1243  57.4125 13.86342740575603"}}, "geometry": {"type": "Point", "coordinates": [144.8885852619722, -73.8555501030835]}}, {"type": "Feature", "properties": {"norad_id": 36369, "name": "COSMOS 2251 DEB", "group": "cosmos-2251-debris", "lat": -42.325105659352, "lon": -101.7921476086358, "alt_km": 654.7516556832443, "timestamp": "2025-12-16T15:45:51.443045+00:00", "meta": {"OBJECT_NAME": "COSMOS 2251 DEB", "OBJECT_ID": "1993-036AYW", "EPOCH": "2025-12-13T11:48:09.562176", "MEAN_MOTION": 14.73593845, "ECCENTRICITY": 0.00111215, "INCLINATION": 74.0315, "RA_OF_ASC_NODE": 69.2624, "ARG_OF_PERICENTER": 147.3699, "MEAN_ANOMALY": 212.8163, "EPHEMERIS_TYPE": 0, "CLASSIFICATION_TYPE": "U", "NORAD_CAT_ID": 36369, "ELEMENT_SET_NO": 999, "REV_AT_EPOCH": 85933, "BSTAR": 0.0023523772, "MEAN_MOTION_DOT": 0.00015337, "MEAN_MOTION_DDOT": 0}, "tle": {"line1": "1 36369U 93036AYW 25347.49177734  .00015337  00000+0  23524-2 0  9997", "line2": "2 36369  74.0315  69.2624 0011121 147.3699 212.8163 14.73593845859333"}}, "geometry": {"type": "Point", "coordinates": [-101.7921476086358, -42.325105659352]}}, {"type": "Feature", "properties": {"norad_id": 36371, "name": "COSMOS 2251 DEB", "group": "cosmos-2251-debris", "lat": 73.85856658582237, "lon": -108.21910801466325, "alt_km": 652.6097820944669, "timestamp": "2025-12-16T15:45:51.443055+00:00", "meta": {"OBJECT_NAME": "COSMOS 2251 DEB", "OBJECT_ID": "1993-036AYY", "EPOCH": "2025-12-14T17:38:02.083776", "MEAN_MOTION": 14.70655983, "ECCENTRICITY": 0.00095601, "INCLINATION": 74.0125, "RA_OF_ASC_NODE": 157.6564, "ARG_OF_PERICENTER": 196.4199, "MEAN_ANOMALY": 163.6664, "EPHEMERIS_TYPE": 0, "CLASSIFICATION_TYPE": "U", "NORAD_CAT_ID": 36371, "ELEMENT_SET_NO": 999, "REV_AT_EPOCH": 71474, "BSTAR": 0.001555296, "MEAN_MOTION_DOT": 9.456e-05, "MEAN_MOTION_DDOT": 0}, "tle": {"line1": "1 36371U 93036AYY 25348.73474634  .00009456  00000+0  15553-2 0  9995", "line2": "2 36371  74.0125 157.6564 0009560 196.4199 163.6664 14.70655983714747"}}, "geometry": {"type": "Point", "coordinates": [-108.21910801466325, 73.85856658582237]}}, {"type": "Feature", "properties": {"norad_id": 36379, "name": "COSMOS 2251 DEB", "group": "cosmos-2251-debris", "lat": 48.94782623916099, "lon": 100.40187625764506, "alt_km": 750.9605253552263, "timestamp": "2025-12-16T15:45:51.443065+00:00", "meta": {"OBJECT_NAME": "COSMOS 2251 DEB", "OBJECT_ID": "1993-036AZG", "EPOCH": "2025-12-14T15:32:01.694112", "MEAN_MOTION": 14.36082107, "ECCENTRICITY": 0.00446626, "INCLINATION": 74.0126, "RA_OF_ASC_NODE": 303.3155, "ARG_OF_PERICENTER": 71.6898, "MEAN_ANOMALY": 110.8401, "EPHEMERIS_TYPE": 0, "CLASSIFICATION_TYPE": "U", "NORAD_CAT_ID": 36379, "ELEMENT_SET_NO": 999, "REV_AT_EPOCH": 64855, "BSTAR": 0.00036106719, "MEAN_MOTION_DOT": 1.037e-05, "MEAN_MOTION_DDOT": 0}, "tle": {"line1": "1 36379U 93036AZG 25348.64724183  .00001037  00000+0  36107-3 0  9996", "line2": "2 36379  74.0126 303.3155 0044662  71.6898 110.8401 14.36082107648556"}}, "geometry": {"type": "Point", "coordinates": [100.40187625764506, 48.94782623916099]}}, {"type": "Feature", "properties": {"norad_id": 36385, "name": "COSMOS 2251 DEB", "group": "cosmos-2251-debris", "lat": -49.35998639894592, "lon": -13.54814330854191, "alt_km": 654.7974195023835, "timestamp": "2025-12-16T15:45:51.443075+00:00", "meta": {"OBJECT_NAME": "COSMOS 2251 DEB", "OBJECT_ID": "1993-036AZN", "EPOCH": "2025-12-14T12:09:34.420896", "MEAN_MOTION": 14.72609971, "ECCENTRICITY": 0.0141345, "INCLINATION": 73.9693, "RA_OF_ASC_NODE": 151.0837, "ARG_OF_PERICENTER": 325.0853, "MEAN_ANOMALY": 34.1107, "EPHEMERIS_TYPE": 0, "CLASSIFICATION_TYPE": "U", "NORAD_CAT_ID": 36385, "ELEMENT_SET_NO": 999, "REV_AT_EPOCH": 85128, "BSTAR": 0.001300457, "MEAN_MOTION_DOT": 9.676e-05, "MEAN_MOTION_DDOT": 0}, "tle": {"line1": "1 36385U 93036AZN 25348.50664839  .00009676  00000+0  13005-2 0  9997", "line2": "2 36385  73.9693 151.0837 0141345 325.0853  34.1107 14.72609971851289"}}, "geometry": {"type": "Point", "coordinates": [-13.54814330854191, -49.35998639894592]}}, {"type": "Feature", "properties": {"norad_id": 36420, "name": "COSMOS 2251 DEB", "group": "cosmos-2251-debris", "lat": 17.893574352737627, "lon": -86.41727380179265, "alt_km": 756.8053007408153, "timestamp": "2025-12-16T15:45:51.443086+00:00", "meta": {"OBJECT_NAME": "COSMOS 2251 DEB", "OBJECT_ID": "1993-036AZT", "EPOCH": "2025-12-15T11:49:33.237120", "MEAN_MOTION": 14.36903496, "ECCENTRICITY": 0.00182639, "INCLINATION": 74.0376, "RA_OF_ASC_NODE": 270.4195, "ARG_OF_PERICENTER": 357.521, "MEAN_ANOMALY": 121.8451, "EPHEMERIS_TYPE": 0, "CLASSIFICATION_TYPE": "U", "NORAD_CAT_ID": 36420, "ELEMENT_SET_NO": 999, "REV_AT_EPOCH": 85076, "BSTAR": 0.00015513934, "MEAN_MOTION_DOT": 4.34e-06, "MEAN_MOTION_DDOT": 0}, "tle": {"line1": "1 36420U 93036AZT 25349.49274580  .00000434  00000+0  15514-3 0  9997", "line2": "2 36420  74.0376 270.4195 0018263 357.5210 121.8451 14.36903496850768"}}, "geometry": {"type": "Point", "coordinates": [-86.41727380179265, 17.893574352737627]}}, {"type": "Feature", "properties": {"norad_id": 36430, "name": "COSMOS 2251 DEB", "group": "cosmos-2251-debris", "lat": -73.93061306036611, "lon": 16.677902041767695, "alt_km": 740.5451577440381, "timestamp": "2025-12-16T15:45:51.443096+00:00", "meta": {"OBJECT_NAME": "COSMOS 2251 DEB", "OBJECT_ID": "1993-036BAD", "EPOCH": "2025-12-15T01:29:56.245920", "MEAN_MOTION": 14.27797993, "ECCENTRICITY": 0.00974903, "INCLINATION": 74.0045, "RA_OF_ASC_NODE": 104.313, "ARG_OF_PERICENTER": 253.9195, "MEAN_ANOMALY": 105.1202, "EPHEMERIS_TYPE": 0, "CLASSIFICATION_TYPE": "U", "NORAD_CAT_ID": 36430, "ELEMENT_SET_NO": 999, "REV_AT_EPOCH": 64590, "BSTAR": 0.00050435869, "MEAN_MOTION_DOT": 1.285e-05, "MEAN_MOTION_DDOT": 0}, "tle": {"line1": "1 36430U 93036BAD 25349.06245655  .00001285  00000+0  50436-3 0  9999", "line2": "2 36430  74.0045 104.3130 0097490 253.9195 105.1202 14.27797993645906"}}, "geometry": {"type": "Point", "coordinates": [16.677902041767695, -73.93061306036611]}}, {"type": "Feature", "properties": {"norad_id": 36437, "name": "COSMOS 2251 DEB", "group": "cosmos-2251-debris", "lat": 17.858292229019153, "lon": -158.97156587025762, "alt_km": 660.4461198992385, "timestamp": "2025-12-16T15:45:51.443107+00:00", "meta": {"OBJECT_NAME": "COSMOS 2251 DEB", "OBJECT_ID": "1993-036BAL", "EPOCH": "2025-12-15T09:38:46.294080", "MEAN_MOTION": 14.70743739, "ECCENTRICITY": 0.00232585, "INCLINATION": 73.9431, "RA_OF_ASC_NODE": 28.8015, "ARG_OF_PERICENTER": 260.2443, "MEAN_ANOMALY": 99.6101, "EPHEMERIS_TYPE": 0, "CLASSIFICATION_TYPE": "U", "NORAD_CAT_ID": 36437, "ELEMENT_SET_NO": 999, "REV_AT_EPOCH": 66090, "BSTAR": 0.00092905041, "MEAN_MOTION_DOT": 5.662e-05, "MEAN_MOTION_DDOT": 0}, "tle": {"line1": "1 36437U 93036BAL 25349.40192470  .00005662  00000+0  92905-3 0  9990", "line2": "2 36437  73.9431  28.8015 0023258 260.2443  99.6101 14.70743739660909"}}, "geometry": {"type": "Point", "coordinates": [-158.97156587025762, 17.858292229019153]}}]}